[{"OBJECT_NAME":"ION SCV-004","OBJECT_ID":"2022-002K","EPOCH":"2026-03-09T16:32:03.244416","MEAN_MOTION":15.29369331,"ECCENTRICITY":0.00072157,"INCLINATION":97.2961,"RA_OF_ASC_NODE":128.2294,"ARG_OF_PERICENTER":1.6783,"MEAN_ANOMALY":358.448,"EPHEMERIS_TYPE":0,"CLASSIFICATION_TYPE":"U","NORAD_CAT_ID":50993,"ELEMENT_SET_NO":999,"REV_AT_EPOCH":23008,"BSTAR":0.00023198467,"MEAN_MOTION_DOT":6.538e-5,"MEAN_MOTION_DDOT":0},{"OBJECT_NAME":"STARLINK-31437","OBJECT_ID":"2024-112V","EPOCH":"2026-03-09T10:25:22.270656","MEAN_MOTION":15.30181601,"ECCENTRICITY":0.00012336,"INCLINATION":53.1602,"RA_OF_ASC_NODE":79.453,"ARG_OF_PERICENTER":73.8346,"MEAN_ANOMALY":286.279,"EPHEMERIS_TYPE":0,"CLASSIFICATION_TYPE":"U","NORAD_CAT_ID":60057,"ELEMENT_SET_NO":999,"REV_AT_EPOCH":9855,"BSTAR":-5.5929054e-5,"MEAN_MOTION_DOT":-2.014e-5,"MEAN_MOTION_DDOT":0}]
